CCSDS_OMM_VERS = 2.0
CREATION_DATE  = 
ORIGINATOR     = 

OBJECT_NAME    = SL-3 R/B
OBJECT_ID      = 1982-079B
CENTER_NAME    = EARTH
REF_FRAME      = TEME
TIME_SYSTEM    = UTC
MEAN_ELEMENT_THEORY = SGP/SGP4

EPOCH          = 2026-02-06T19:39:29.986848
MEAN_MOTION    = 15.24348932
ECCENTRICITY   = .0024091
INCLINATION    = 81.1440
RA_OF_ASC_NODE = 229.5183
ARG_OF_PERICENTER = 271.1146
MEAN_ANOMALY   = 88.7327

EPHEMERIS_TYPE = 0
CLASSIFICATION_TYPE = U
NORAD_CAT_ID   = 13403
ELEMENT_SET_NO = 999
REV_AT_EPOCH   = 37299
BSTAR          = .28176E-3
MEAN_MOTION_DOT = .6976E-4
MEAN_MOTION_DDOT = 0

CCSDS_OMM_VERS = 2.0
CREATION_DATE  = 
ORIGINATOR     = 

OBJECT_NAME    = SL-14 R/B
OBJECT_ID      = 1982-092B
CENTER_NAME    = EARTH
REF_FRAME      = TEME
TIME_SYSTEM    = UTC
MEAN_ELEMENT_THEORY = SGP/SGP4

EPOCH          = 2026-02-06T19:50:22.116768
MEAN_MOTION    = 14.86631658
ECCENTRICITY   = .0021434
INCLINATION    = 82.5701
RA_OF_ASC_NODE = 170.2575
ARG_OF_PERICENTER = 46.7357
MEAN_ANOMALY   = 66.5997

EPHEMERIS_TYPE = 0
CLASSIFICATION_TYPE = U
NORAD_CAT_ID   = 13553
ELEMENT_SET_NO = 999
REV_AT_EPOCH   = 32434
BSTAR          = .84945E-4
MEAN_MOTION_DOT = .781E-5
MEAN_MOTION_DDOT = 0

CCSDS_OMM_VERS = 2.0
CREATION_DATE  = 
ORIGINATOR     = 

OBJECT_NAME    = SL-3 R/B
OBJECT_ID      = 1983-010B
CENTER_NAME    = EARTH
REF_FRAME      = TEME
TIME_SYSTEM    = UTC
MEAN_ELEMENT_THEORY = SGP/SGP4

EPOCH          = 2026-02-06T10:19:08.290848
MEAN_MOTION    = 15.45254078
ECCENTRICITY   = .00177935
INCLINATION    = 81.1023
RA_OF_ASC_NODE = 40.5407
ARG_OF_PERICENTER = 150.6944
MEAN_ANOMALY   = 209.5302

EPHEMERIS_TYPE = 0
CLASSIFICATION_TYPE = U
NORAD_CAT_ID   = 13819
ELEMENT_SET_NO = 999
REV_AT_EPOCH   = 35311
BSTAR          = .37891334E-3
MEAN_MOTION_DOT = .18171E-3
MEAN_MOTION_DDOT = 0

CCSDS_OMM_VERS = 2.0
CREATION_DATE  = 
ORIGINATOR     = 

OBJECT_NAME    = SL-3 R/B
OBJECT_ID      = 1983-075B
CENTER_NAME    = EARTH
REF_FRAME      = TEME
TIME_SYSTEM    = UTC
MEAN_ELEMENT_THEORY = SGP/SGP4

EPOCH          = 2026-02-06T18:47:33.075744
MEAN_MOTION    = 15.37617435
ECCENTRICITY   = .0021365
INCLINATION    = 97.6133
RA_OF_ASC_NODE = 41.2145
ARG_OF_PERICENTER = 345.9273
MEAN_ANOMALY   = 14.1373

EPHEMERIS_TYPE = 0
CLASSIFICATION_TYPE = U
NORAD_CAT_ID   = 14208
ELEMENT_SET_NO = 999
REV_AT_EPOCH   = 32540
BSTAR          = .39404E-3
MEAN_MOTION_DOT = .14583E-3
MEAN_MOTION_DDOT = 0

CCSDS_OMM_VERS = 2.0
CREATION_DATE  = 
ORIGINATOR     = 

OBJECT_NAME    = COSMOS 1536
OBJECT_ID      = 1984-013A
CENTER_NAME    = EARTH
REF_FRAME      = TEME
TIME_SYSTEM    = UTC
MEAN_ELEMENT_THEORY = SGP/SGP4

EPOCH          = 2026-02-06T18:52:50.572416
MEAN_MOTION    = 15.23413306
ECCENTRICITY   = .001504
INCLINATION    = 82.5473
RA_OF_ASC_NODE = 138.5522
ARG_OF_PERICENTER = 36.0705
MEAN_ANOMALY   = 324.1543

EPHEMERIS_TYPE = 0
CLASSIFICATION_TYPE = U
NORAD_CAT_ID   = 14699
ELEMENT_SET_NO = 999
REV_AT_EPOCH   = 26791
BSTAR          = .32111E-3
MEAN_MOTION_DOT = .7698E-4
MEAN_MOTION_DDOT = 0

CCSDS_OMM_VERS = 2.0
CREATION_DATE  = 
ORIGINATOR     = 

OBJECT_NAME    = SL-14 R/B
OBJECT_ID      = 1984-027B
CENTER_NAME    = EARTH
REF_FRAME      = TEME
TIME_SYSTEM    = UTC
MEAN_ELEMENT_THEORY = SGP/SGP4

EPOCH          = 2026-02-06T17:13:21.154944
MEAN_MOTION    = 14.85946191
ECCENTRICITY   = .0019506
INCLINATION    = 82.5401
RA_OF_ASC_NODE = 274.0672
ARG_OF_PERICENTER = 77.1095
MEAN_ANOMALY   = 283.2299

EPHEMERIS_TYPE = 0
CLASSIFICATION_TYPE = U
NORAD_CAT_ID   = 14820
ELEMENT_SET_NO = 999
REV_AT_EPOCH   = 24303
BSTAR          = .65124E-4
MEAN_MOTION_DOT = .595E-5
MEAN_MOTION_DDOT = 0

CCSDS_OMM_VERS = 2.0
CREATION_DATE  = 
ORIGINATOR     = 

OBJECT_NAME    = SL-8 R/B
OBJECT_ID      = 1985-006B
CENTER_NAME    = EARTH
REF_FRAME      = TEME
TIME_SYSTEM    = UTC
MEAN_ELEMENT_THEORY = SGP/SGP4

EPOCH          = 2026-02-06T19:59:34.796832
MEAN_MOTION    = 14.37767799
ECCENTRICITY   = .001956
INCLINATION    = 74.0473
RA_OF_ASC_NODE = 317.9264
ARG_OF_PERICENTER = 241.6239
MEAN_ANOMALY   = 174.3240

EPHEMERIS_TYPE = 0
CLASSIFICATION_TYPE = U
NORAD_CAT_ID   = 15483
ELEMENT_SET_NO = 999
REV_AT_EPOCH   = 14959
BSTAR          = .12565E-3
MEAN_MOTION_DOT = .353E-5
MEAN_MOTION_DDOT = 0

CCSDS_OMM_VERS = 2.0
CREATION_DATE  = 
ORIGINATOR     = 

OBJECT_NAME    = SL-12 R/B(2)
OBJECT_ID      = 1985-042D
CENTER_NAME    = EARTH
REF_FRAME      = TEME
TIME_SYSTEM    = UTC
MEAN_ELEMENT_THEORY = SGP/SGP4

EPOCH          = 2026-02-06T18:01:38.714592
MEAN_MOTION    = 14.21973416
ECCENTRICITY   = .0035056
INCLINATION    = 71.1086
RA_OF_ASC_NODE = 153.0916
ARG_OF_PERICENTER = 177.6024
MEAN_ANOMALY   = 290.5428

EPHEMERIS_TYPE = 0
CLASSIFICATION_TYPE = U
NORAD_CAT_ID   = 15772
ELEMENT_SET_NO = 999
REV_AT_EPOCH   = 10999
BSTAR          = .9052E-4
MEAN_MOTION_DOT = .154E-5
MEAN_MOTION_DDOT = 0

CCSDS_OMM_VERS = 2.0
CREATION_DATE  = 
ORIGINATOR     = 

OBJECT_NAME    = SL-14 R/B
OBJECT_ID      = 1985-069B
CENTER_NAME    = EARTH
REF_FRAME      = TEME
TIME_SYSTEM    = UTC
MEAN_ELEMENT_THEORY = SGP/SGP4

EPOCH          = 2026-02-06T12:14:07.152000
MEAN_MOTION    = 14.86396311
ECCENTRICITY   = .00173788
INCLINATION    = 82.5240
RA_OF_ASC_NODE = 54.2591
ARG_OF_PERICENTER = 298.1865
MEAN_ANOMALY   = 61.7596

EPHEMERIS_TYPE = 0
CLASSIFICATION_TYPE = U
NORAD_CAT_ID   = 15945
ELEMENT_SET_NO = 999
REV_AT_EPOCH   = 16820
BSTAR          = .73839746E-4
MEAN_MOTION_DOT = .677E-5
MEAN_MOTION_DDOT = 0

CCSDS_OMM_VERS = 2.0
CREATION_DATE  = 
ORIGINATOR     = 

OBJECT_NAME    = SL-16 R/B
OBJECT_ID      = 1985-097B
CENTER_NAME    = EARTH
REF_FRAME      = TEME
TIME_SYSTEM    = UTC
MEAN_ELEMENT_THEORY = SGP/SGP4

EPOCH          = 2026-02-06T20:31:29.476128
MEAN_MOTION    = 14.16596294
ECCENTRICITY   = .0009535
INCLINATION    = 71.0015
RA_OF_ASC_NODE = 205.4649
ARG_OF_PERICENTER = 295.8433
MEAN_ANOMALY   = 170.3737

EPHEMERIS_TYPE = 0
CLASSIFICATION_TYPE = U
NORAD_CAT_ID   = 16182
ELEMENT_SET_NO = 999
REV_AT_EPOCH   = 8286
BSTAR          = .26234E-4
MEAN_MOTION_DOT = .4E-7
MEAN_MOTION_DDOT = 0

CCSDS_OMM_VERS = 2.0
CREATION_DATE  = 
ORIGINATOR     = 

OBJECT_NAME    = SL-14 R/B
OBJECT_ID      = 1986-006B
CENTER_NAME    = EARTH
REF_FRAME      = TEME
TIME_SYSTEM    = UTC
MEAN_ELEMENT_THEORY = SGP/SGP4

EPOCH          = 2026-02-06T18:20:32.084736
MEAN_MOTION    = 14.86772644
ECCENTRICITY   = .0077109
INCLINATION    = 82.5270
RA_OF_ASC_NODE = 288.8449
ARG_OF_PERICENTER = 16.3601
MEAN_ANOMALY   = 344.0077

EPHEMERIS_TYPE = 0
CLASSIFICATION_TYPE = U
NORAD_CAT_ID   = 16496
ELEMENT_SET_NO = 999
REV_AT_EPOCH   = 14461
BSTAR          = .10554E-3
MEAN_MOTION_DOT = .1018E-4
MEAN_MOTION_DDOT = 0

CCSDS_OMM_VERS = 2.0
CREATION_DATE  = 
ORIGINATOR     = 

OBJECT_NAME    = COSMOS 1743
OBJECT_ID      = 1986-034A
CENTER_NAME    = EARTH
REF_FRAME      = TEME
TIME_SYSTEM    = UTC
MEAN_ELEMENT_THEORY = SGP/SGP4

EPOCH          = 2026-02-06T16:08:06.670752
MEAN_MOTION    = 15.56312160
ECCENTRICITY   = .0005185
INCLINATION    = 82.5330
RA_OF_ASC_NODE = 106.3246
ARG_OF_PERICENTER = 58.0462
MEAN_ANOMALY   = 302.1296

EPHEMERIS_TYPE = 0
CLASSIFICATION_TYPE = U
NORAD_CAT_ID   = 16719
ELEMENT_SET_NO = 999
REV_AT_EPOCH   = 17542
BSTAR          = .53503E-3
MEAN_MOTION_DOT = .37797E-3
MEAN_MOTION_DDOT = 0

