SL-3 R/B                
1 13403U 82079B   26037.81909707  .00006976  00000+0  28176-3 0  9990
2 13403  81.1440 229.5183 0024091 271.1146  88.7327 15.24348932372995
SL-14 R/B               
1 13553U 82092B   26037.82664487  .00000781  00000+0  84945-4 0  9990
2 13553  82.5701 170.2575 0021434  46.7357  66.5997 14.86631658324341
SL-3 R/B                
1 13819U 83010B   26037.42995707  .00018171  00000+0  37891-3 0  9993
2 13819  81.1023  40.5407 0017793 150.6944 209.5302 15.45254078353110
SL-3 R/B                
1 14208U 83075B   26037.78302171  .00014583  00000+0  39404-3 0  9998
2 14208  97.6133  41.2145 0021365 345.9273  14.1373 15.37617435325408
COSMOS 1536             
1 14699U 84013A   26037.78669644  .00007698  00000+0  32111-3 0  9993
2 14699  82.5473 138.5522 0015040  36.0705 324.1543 15.23413306267912
SL-14 R/B               
1 14820U 84027B   26037.71760596  .00000595  00000+0  65124-4 0  9995
2 14820  82.5401 274.0672 0019506  77.1095 283.2299 14.85946191243030
SL-8 R/B                
1 15483U 85006B   26037.83304163  .00000353  00000+0  12565-3 0  9998
2 15483  74.0473 317.9264 0019560 241.6239 174.3240 14.37767799149597
SL-12 R/B(2)            
1 15772U 85042D   26037.75114253  .00000154  00000+0  90520-4 0  9996
2 15772  71.1086 153.0916 0035056 177.6024 290.5428 14.21973416109994
SL-14 R/B               
1 15945U 85069B   26037.50980500  .00000677  00000+0  73840-4 0  9992
2 15945  82.5240  54.2591 0017378 298.1865  61.7596 14.86396311168201
SL-16 R/B               
1 16182U 85097B   26037.85520227  .00000004  00000+0  26234-4 0  9990
2 16182  71.0015 205.4649 0009535 295.8433 170.3737 14.16596294 82869
SL-14 R/B               
1 16496U 86006B   26037.76426024  .00001018  00000+0  10554-3 0  9992
2 16496  82.5270 288.8449 0077109  16.3601 344.0077 14.86772644144616
COSMOS 1743             
1 16719U 86034A   26037.67229943  .00037797  00000+0  53503-3 0  9996
2 16719  82.5330 106.3246 0005185  58.0462 302.1296 15.56312160175425
